ONEWEB-0628             
1 55169U 23004AF  26013.94852469 -.00000056  00000+0 -19118-3 0  9999
2 55169  87.8929  21.2765 0002479  91.3431 268.7982 13.12440112147808
ONEWEB-0629             
1 55170U 23004AG  26013.81120384  .00000017  00000+0  11395-4 0  9996
2 55170  87.9085  36.5598 0002082  86.8721 273.2649 13.17650485147259
ONEWEB-0631             
1 55171U 23004AH  26013.69246661  .00000069  00000+0  14331-3 0  9999
2 55171  87.9188   6.1071 0001613 105.6255 254.5055 13.18684882149315
ONEWEB-0709             
1 55172U 23004AJ  26013.55079912  .00000639  00000+0  17659-2 0  9996
2 55172  87.8824  51.8701 0001104 118.3644 241.7595 13.11416546145605
ONEWEB-0710             
1 55173U 23004AK  26013.97742087  .00000060  00000+0  12054-3 0  9996
2 55173  87.9086  36.5212 0001936  96.9031 263.2321 13.17650659147270
ONEWEB-0711             
1 55174U 23004AL  26013.52195525 -.00000709  00000+0 -20365-2 0  9992
2 55174  87.8836  51.8528 0002517 105.8139 254.3267 13.11418211145568
ONEWEB-0713             
1 55175U 23004AM  26013.54062164  .00000400  00000+0  10938-2 0  9998
2 55175  87.8832  51.8498 0002237 103.0365 257.1013 13.11418821145557
ONEWEB-0715             
1 55176U 23004AN  26013.53553330  .00000203  00000+0  53645-3 0  9992
2 55176  87.8832  51.8517 0001525 120.7061 239.4217 13.11419136145591
